{
  "name": "SATGUS",
  "line1": "1 62713U 25009DJ  26033.47338695  .00007972  00000+0  65827-3 0  9999",
  "line2": "2 62713  97.7143 116.0812 0002331 221.7005 138.4040 14.99240249 57362",
  "fetched_at": "2026-02-03T00:25:44.609005+00:00"
}